{
  "type": "FeatureCollection",
  "since_timestamp": "2022-06-29T02:00:00Z",
  "generated_at": "2026-09-29T16:39:40.227730+00:00",
  "total_corridor_segments": 10,
  "delta_count": 2,
  "bandwidth_saved_percent": 80.0,
  "features": [
    {
      "type": "Feature",
      "geometry": {
        "type": "LineString",
        "coordinates": [
          [
            93.68,
            24.77
          ],
          [
            93.64,
            24.71
          ]
        ]
      },
      "properties": {
        "segment_id": "NH37-SEG-04",
        "corridor_name": "NH-37 Imphal-Jiribam",
        "chainage_km": "Km 38.0 - Km 50.0",
        "location_name": "Tupul Railway Yard / Ijei Confluence",
        "hazard_level": "EMERGENCY_EVACUATION",
        "previous_hazard_level": "EMERGENCY_EVACUATION",
        "landslide_probability": 0.9898,
        "transition_timestamp": "2022-06-29T02:00:00Z",
        "delta_type": "HAZARD_UPDATE",
        "rainfall_24h_mm": 16.2,
        "smap_soil_moisture": 0.4,
        "recommended_action": "RED ALERT: Complete highway closure. Order immediate vehicle stoppage & evacuation to safe shelters."
      }
    },
    {
      "type": "Feature",
      "geometry": {
        "type": "LineString",
        "coordinates": [
          [
            93.64,
            24.71
          ],
          [
            93.59,
            24.73
          ]
        ]
      },
      "properties": {
        "segment_id": "NH37-SEG-05",
        "corridor_name": "NH-37 Imphal-Jiribam",
        "chainage_km": "Km 50.0 - Km 62.0",
        "location_name": "Noney Bridge & River Gorge",
        "hazard_level": "HIGH_EARLY_WARNING",
        "previous_hazard_level": "NORMAL",
        "landslide_probability": 0.6774,
        "transition_timestamp": "2022-06-29T02:00:00Z",
        "delta_type": "HAZARD_ESCALATION",
        "rainfall_24h_mm": 15.0,
        "smap_soil_moisture": 0.4,
        "recommended_action": "ORANGE ALERT: Divert heavy freight. Deploy SDRF/BRO clearing bulldozers to high-risk chainage."
      }
    }
  ]
}